CBERS 4A                
1 44883U 19093E   24357.86154778  .00002978  00000+0  38545-3 0  9999
2 44883  97.8136  69.4887 0003311 110.3059 249.8510 14.81601157270925
WEILAI 1R               
1 44884U 19093F   24357.82873813  .00009622  00000+0  92397-3 0  9992
2 44884  97.8232  77.4956 0011625  54.8991 305.3316 14.93226301271417
FLORIPASAT-1            
1 44885U 19093G   24357.82583958  .00010972  00000+0  10088-2 0  9997
2 44885  97.8283  79.4311 0011829  52.8196 307.4103 14.94905984271501
SHUNTIAN                
1 44886U 19093H   24357.80361615  .00005010  00000+0  51736-3 0  9993
2 44886  97.8341  78.4781 0014068  65.5747 294.6937 14.90535265271394
2019-093L               
1 44889U 19093L   24357.82790609  .00007504  00000+0  79155-3 0  9992
2 44889  97.8073  71.6807 0014093  52.4373 307.8122 14.89513381271061
ELEKTRO-L 3             
1 44903U 19095A   24357.83039812 -.00000079  00000+0  00000+0 0  9994
2 44903   0.0569 174.7061 0002105 113.2240 178.9228  1.00271755 18283
GONETS-M 14             
1 44905U 19096A   24357.86615579  .00000025  00000+0  10975-3 0  9996
2 44905  82.5236  60.2286 0012748 251.3740 108.5955 12.42883761226430
GONETS-M 15             
1 44906U 19096B   24357.89173744  .00000038  00000+0  20712-3 0  9997
2 44906  82.5256  60.5807 0014435 275.4357  84.5076 12.42886312226400
GONETS-M 16             
1 44907U 19096C   24357.83694627  .00000021  00000+0  80121-4 0  9993
2 44907  82.5202  59.8086 0010456 320.6745  39.3574 12.42887509226382
RS-44 & BREEZE-KM R/B   
1 44909U 19096E   24357.44941097  .00000024  00000+0  57118-4 0  9991
2 44909  82.5218 339.6723 0216981 331.3277  27.6030 12.79737137233058
JILIN-1 KUANFU 01       
1 45016U 20003A   24357.92422968  .00010594  00000+0  55777-3 0  9996
2 45016  97.5616  69.5629 0011625 183.5326 176.5826 15.15750394273616
XINGYUN-2 01            
1 45602U 20028A   24357.89248977  .00005120  00000+0  33827-3 0  9997
2 45602  97.4588 352.5540 0008187 265.5063  94.5231 15.07808688253156
XINGYUN-2 02            
1 45603U 20028B   24357.88318166  .00004973  00000+0  32864-3 0  9990
2 45603  97.5129   3.6447 0011112 339.6066  20.4717 15.07793212253150
HAIYANG-1D              
1 45721U 20036A   24357.85910553  .00000481  00000+0  18766-3 0  9990
2 45721  98.6117 297.3091 0001071 236.7723 123.3359 14.34190309237386
M2 PATHFINDER           
1 45727U 20037E   24357.50104835  .00006396  00000+0  51966-3 0  9997
2 45727  97.7772 173.4085 0011074 196.1440 163.9432 14.99906339244148
GAOFEN DUOMO (GFDM)     
1 45856U 20042A   24357.85537926  .00002265  00000+0  32933-3 0  9999
2 45856  97.8483  64.0760 0014429  37.1572 323.0634 14.76810923241118
ZINYUAN-3               
1 45939U 20051A   24357.87914019  .00011877  00000+0  53401-3 0  9997
2 45939  97.3475  69.8844 0006178 120.0852 240.0997 15.21254603245041
TIANTUO 5               
1 46234U 20058C   24357.83112096  .00079435  00000+0  96135-3 0  9999
2 46234  97.2700  57.4132 0007740  52.4645 307.7314 15.60388815241975
TYVAK-0172              
1 46267U 20059C   24357.58848057  .00031883  00000+0  15652-2 0  9990
2 46267  97.7983 204.0559 0003351  40.8442 319.3041 15.18012556235194
ION-MK01                
1 46274U 20061C   24357.78479402  .00027008  00000+0  67363-3 0  9998
2 46274  97.2735  59.4034 0004567 122.2548 237.9142 15.40164339238905
UPMSAT-2                
1 46276U 20061E   24357.75867654  .00039324  00000+0  76390-3 0  9991
2 46276  97.2718  63.1239 0001613 133.4254 226.7130 15.47527502239191
NEMO-HD                 
1 46277U 20061F   24357.84635868  .00013980  00000+0  46024-3 0  9993
2 46277  97.2725  56.5448 0001907 137.2827 222.8563 15.31602821238762
DIDO 3                  
1 46284U 20061N   24357.69377097  .00113994  00000+0  14708-2 0  9990
2 46284  97.3188  64.9879 0001576 244.5388 115.5705 15.58602844238514
AMICALSAT               
1 46287U 20061R   24357.72013838  .00432206  00000+0  17918-2 0  9993
2 46287  97.3132  68.9941 0003524 272.1869  87.8998 15.84715299238812
3CAT-5A                 
1 46292U 20061W   24357.71510100  .00016283  00000+0  59540-3 0  9993
2 46292  97.3230  54.7262 0001325 254.8536 105.2557 15.28147552237859
3CAT-5B                 
1 46293U 20061X   24357.68851686  .00016203  00000+0  58938-3 0  9999
2 46293  97.3239  55.0627 0001265 249.2941 110.8163 15.28321985237847
OSM-1 CICERO            
1 46294U 20061Y   24357.75095738  .00046573  00000+0  93512-3 0  9996
2 46294  97.3279  63.6328 0001629 200.5970 159.5214 15.46529374238436
NAPA-1                  
1 46320U 20061BA  24357.86586018  .00028265  00000+0  93349-3 0  9990
2 46320  97.3289  58.0979 0001704 147.3520 212.7827 15.31354106238086
JILIN-1 GAOFEN 3B       
1 46454U 20065A   24357.93893074  .00032537  00000+0  94594-3 0  9993
2 46454  97.3135  40.5977 0012935 265.5900  94.3865 15.35307241236313
JILIN-1 GAOFEN 3E       
1 46457U 20065D   24357.90122847  .00024956  00000+0  88923-3 0  9991
2 46457  97.3142  40.5111 0026214 327.5492  32.4135 15.28579834236295
JILIN-1 GAOFEN 3F       
1 46458U 20065E   24357.94798946  .00025220  00000+0  91349-3 0  9996
2 46458  97.3074  39.1928 0027166 315.1793  44.7252 15.28015810236301
JILIN-1 GAOFEN 3G       
1 46459U 20065F   24357.92310219  .00034007  00000+0  97410-3 0  9996
2 46459  97.3195  41.8892 0012124 260.8525  99.1347 15.35774918236312
JILIN-1 GAOFEN 3H       
1 46460U 20065G   24357.93492589  .00034855  00000+0  95269-3 0  9991
2 46460  97.3099  39.4805 0006024 277.0495  83.0064 15.37287230236307
JILIN-1 GAOFEN 3J       
1 46462U 20065J   24357.78817516  .00027999  00000+0  77808-3 0  9997
2 46462  97.3135  40.5885 0006252 280.5843  79.4697 15.36815368236309
HAIYANG-2C              
1 46469U 20066A   24357.82259377  .00000049  00000+0  11826-3 0  9990
2 46469  65.9957 123.1635 0004314 278.5624  81.4956 13.83375335214617
HJ-2A                   
1 46478U 20067A   24357.83973629  .00002013  00000+0  29603-3 0  9990
2 46478  97.9290  76.5691 0002670 187.4408 172.6762 14.76527630228372
HJ-2B                   
1 46479U 20067B   24357.80766767  .00001817  00000+0  26780-3 0  9995
2 46479  97.9336  77.2006 0001888 349.3598  10.7572 14.76544352228372
GONETS-M 17             
1 46486U 20068A   24357.86230487  .00000053  00000+0  30999-3 0  9993
2 46486  82.4984 324.2414 0023512 133.3983 226.9060 12.42884000191913
GONETS-M 18             
1 46487U 20068B   24357.90876138  .00000032  00000+0  15680-3 0  9995
2 46487  82.4939 323.5386 0020756 129.7316 230.5597 12.42873104191908
GONETS-M 19             
1 46488U 20068C   24357.88214353  .00000065  00000+0  39926-3 0  9993
2 46488  82.4963 323.8906 0014288 143.0891 217.1174 12.42898706192006
MEZNSAT                 
1 46489U 20068D   24357.87034177  .00080134  00000+0  15193-2 0  9991
2 46489  97.8246 335.1930 0008382  18.2392 341.9156 15.48011016233722
YARILO 1                
1 46490U 20068E   24357.85818011  .00138923  00000+0  17559-2 0  9996
2 46490  97.8248 338.0226 0006918  23.9856 336.1720 15.59039149233897
YARILO 2                
1 46491U 20068F   24357.86728231  .00211526  00000+0  20542-2 0  9999
2 46491  97.8105 338.0875 0007195  50.0266 310.1623 15.65621186233905
LACUNASAT-3             
1 46492U 20068G   24357.89762079  .00242564  00000+0  19874-2 0  9993
2 46492  97.8139 339.8301 0005742  52.7256 307.4527 15.69746006234007
DEKART                  
1 46493U 20068H   24357.84985138  .00017047  00000+0  75806-3 0  9996
2 46493  97.8406 324.8581 0014521  33.0208 327.1930 15.21484482233015
NORBI                   
1 46494U 20068J   24357.90605342  .00021825  00000+0  88416-3 0  9990
2 46494  97.8398 326.4946 0013431  30.0497 330.1507 15.24604687233125
SALSAT                  
1 46495U 20068K   24357.90895763  .00013678  00000+0  66659-3 0  9991
2 46495  97.8421 322.8977 0013981  33.4092 326.8021 15.18379998232898
ICEYE-X6                
1 46497U 20068M   24357.84423246  .00007721  00000+0  61312-3 0  9992
2 46497  98.0082 318.8187 0006524  93.8333 266.3636 15.00757832231962
NETSAT-4                
1 46504U 20068U   24357.85566650  .00020726  00000+0  88584-3 0  9999
2 46504  97.8283 321.3105 0011193  72.2674 287.9782 15.22831306232805
NETSAT-3                
1 46505U 20068V   24357.85201501  .00019267  00000+0  84331-3 0  9995
2 46505  97.8273 320.5743 0010602  80.4022 279.8410 15.22042347232780
NETSAT-1                
1 46506U 20068W   24357.85771633  .00014786  00000+0  71042-3 0  9990
2 46506  97.8296 319.4252 0009502  90.1531 270.0791 15.18901492232705
NETSAT-2                
1 46507U 20068X   24357.88048374  .00020556  00000+0  88301-3 0  9991
2 46507  97.8274 320.9109 0008857  91.9970 268.2280 15.22682205232758
TIANQI-6                
1 46810U 20076D   24357.74804807  .00007988  00000+0  61591-3 0  9999
2 46810  34.9999 117.2463 0012494  94.6867 265.5268 15.00882035226992
KSM1-C                  
1 46906U 20081B   24357.81737144  .00013848  00000+0  74114-3 0  9995
2 46906  36.8927 131.4519 0004611  38.8181 321.2895 15.14420356226705
KSM1-D                  
1 46907U 20081C   24357.79872063  .00012859  00000+0  70302-3 0  9999
2 46907  36.8962 133.6017 0006498  47.5395 312.5898 15.13677123226702
KSM1-A                  
1 46912U 20081H   24357.84091353  .00014017  00000+0  75550-3 0  9994
2 46912  36.8958 131.0736 0005057 103.4417 256.6892 15.14163202226745
R2                      
1 46913U 20081J   24357.75362116  .00012633  00000+0  68283-3 0  9990
2 46913  36.8995 129.9366 0010212  63.0865 297.0922 15.14062985229550
KSM1-B                  
1 46914U 20081K   24357.81667892  .00013300  00000+0  72853-3 0  9997
2 46914  36.9004 133.1669 0008692  66.7995 293.3665 15.13586287229805
GONETS-M 20             
1 47227U 20091A   24357.82074667  .00000051  00000+0  29814-3 0  9997
2 47227  82.5040 278.9195 0019983 284.9860  74.9007 12.42888629183820
